NORAD_CAT_ID,OBJECT_NAME,OBJECT_TYPE,EPOCH,MEAN_MOTION,ECCENTRICITY,INCLINATION,RA_OF_ASC_NODE,ARG_OF_PERICENTER,MEAN_ANOMALY,BSTAR,MEAN_MOTION_DOT,MEAN_MOTION_DDOT,TLE_LINE0,TLE_LINE1,TLE_LINE2,SEMIMAJOR_AXIS,PERIOD,APOGEE,PERIGEE,DECAYED
54805.0,STARLINK-5417,PAYLOAD,2023-11-27 18:53:30,15.08808958,0.0001345,53.2157,167.8738,99.4445,260.6699,0.00024958,3.683e-05,0.0,0 STARLINK-5417,1 54805U 22175AZ  23331.78716156  .00003683  00000-0  24958-3 0  9993,2 54805  53.2157 167.8738 0001345  99.4445 260.6699 15.08808958 52237,6917.975,95.44,540.771,538.91,0.0
54805.0,STARLINK-5417,PAYLOAD,2023-11-28 12:22:44,15.08833595,0.000137,53.2159,164.6024,94.0588,266.0561,1.4064e-05,-6.4e-07,0.0,0 STARLINK-5417,1 54805U 22175AZ  23332.51579506 -.00000064  00000-0  14064-4 0  9990,2 54805  53.2159 164.6024 0001370  94.0588 266.0561 15.08833595 52344,6917.9,95.438,540.713,538.817,0.0
54805.0,STARLINK-5417,PAYLOAD,2023-11-28 20:19:39,15.08839597,0.0001312,53.2155,163.1174,92.0924,268.0219,5.5621e-05,5.97e-06,0.0,0 STARLINK-5417,1 54805U 22175AZ  23332.84699017  .00000597  00000-0  55621-4 0  9990,2 54805  53.2155 163.1174 0001312  92.0924 268.0219 15.08839597 52393,6917.882,95.438,540.654,538.839,0.0
54805.0,STARLINK-5417,PAYLOAD,2023-11-30 12:04:18,15.08839948,0.0001525,53.2168,155.6853,74.7732,285.3429,2.8804e-06,-2.42e-06,0.0,0 STARLINK-5417,1 54805U 22175AZ  23334.50299584 -.00000242  00000-0  28804-5 0  9992,2 54805  53.2168 155.6853 0001525  74.7732 285.3429 15.08839948 52640,6917.881,95.438,540.801,538.691,0.0
54805.0,STARLINK-5417,PAYLOAD,2023-12-01 18:16:38,15.08842433,0.0001597,53.2164,150.0348,72.9496,287.1671,4.5371e-05,4.34e-06,0.0,0 STARLINK-5417,1 54805U 22175AZ  23335.76155199  .00000434  00000-0  45371-4 0  9993,2 54805  53.2164 150.0348 0001597  72.9496 287.1671 15.08842433 52833,6917.873,95.437,540.843,538.633,0.0
54805.0,STARLINK-5417,PAYLOAD,2023-12-02 11:45:52,15.08844001,0.0001445,53.215,146.7616,86.9083,273.2075,4.3655e-05,4.07e-06,0.0,0 STARLINK-5417,1 54805U 22175AZ  23336.49018831  .00000407  00000-0  43655-4 0  9998,2 54805  53.2150 146.7616 0001445  86.9083 273.2075 15.08844001 55107,6917.868,95.437,540.733,538.734,0.0
54805.0,STARLINK-5417,PAYLOAD,2023-12-02 18:07:24,15.0884361,0.0001498,53.2164,145.5725,102.0243,258.0917,3.6785e-05,2.98e-06,0.0,0 STARLINK-5417,1 54805U 22175AZ  23336.75514718  .00000298  00000-0  36785-4 0  9996,2 54805  53.2164 145.5725 0001498 102.0243 258.0917 15.08843610 55141,6917.869,95.437,540.771,538.698,0.0
54805.0,STARLINK-5417,PAYLOAD,2023-12-03 11:36:40,15.08836539,0.0001781,53.2185,142.3077,72.7665,287.3522,-8.8864e-05,-1.702e-05,0.0,0 STARLINK-5417,1 54805U 22175AZ  23337.48380077 -.00001702  00000-0 -88864-4 0  9994,2 54805  53.2185 142.3077 0001781  72.7665 287.3522 15.08836539 53096,6917.891,95.438,540.988,538.524,0.0
54805.0,STARLINK-5417,PAYLOAD,2023-12-04 11:27:27,15.0883585,0.0001327,53.2167,137.8361,111.0579,249.0555,-8.1165e-05,-1.579e-05,0.0,0 STARLINK-5417,1 54805U 22175AZ  23338.47740155 -.00001579  00000-0 -81165-4 0  9990,2 54805  53.2167 137.8361 0001327 111.0579 249.0555 15.08835850 55401,6917.893,95.438,540.676,538.84,0.0
54805.0,STARLINK-5417,PAYLOAD,2023-12-05 11:18:15,15.08822923,0.0001192,53.2149,133.3793,104.0502,256.0623,2.6557e-05,1.35e-06,0.0,0 STARLINK-5417,1 54805U 22175AZ  23339.47101267  .00000135  00000-0  26557-4 0  9995,2 54805  53.2149 133.3793 0001192 104.0502 256.0623 15.08822923 53396,6917.933,95.439,540.622,538.973,0.0
54805.0,STARLINK-5417,PAYLOAD,2023-12-05 12:53:38,15.08823039,0.0001192,53.215,133.082,104.0847,256.0278,2.6446e-05,1.33e-06,0.0,0 STARLINK-5417,1 54805U 22175AZ  23339.53725322  .00000133  00000-0  26446-4 0  9991,2 54805  53.2150 133.0820 0001192 104.0847 256.0278 15.08823039 55564,6917.932,95.439,540.622,538.973,0.0
54805.0,STARLINK-5417,PAYLOAD,2023-12-05 20:50:34,15.08826969,0.0001184,53.2151,131.5947,105.1625,254.9498,5.1397e-05,5.3e-06,0.0,0 STARLINK-5417,1 54805U 22175AZ  23339.86845279  .00000530  00000-0  51397-4 0  9995,2 54805  53.2151 131.5947 0001184 105.1625 254.9498 15.08826969 55617,6917.92,95.438,540.604,538.966,0.0
54805.0,STARLINK-5417,PAYLOAD,2023-12-06 19:05:57,15.08841579,8.33e-05,53.2161,127.4332,97.8342,262.2745,0.00013609,1.879e-05,0.0,0 STARLINK-5417,1 54805U 22175AZ  23340.79580164  .00001879  00000-0  13609-3 0  9998,2 54805  53.2161 127.4332 0000833  97.8342 262.2745 15.08841579 53599,6917.876,95.437,540.317,539.164,0.0
54805.0,STARLINK-5417,PAYLOAD,2023-12-07 12:35:11,15.08842881,6.79e-05,53.2165,124.1623,94.2025,265.9045,4.2347e-05,3.86e-06,0.0,0 STARLINK-5417,1 54805U 22175AZ  23341.52444289  .00000386  00000-0  42347-4 0  9991,2 54805  53.2165 124.1623 0000679  94.2025 265.9045 15.08842881 55869,6917.872,95.437,540.206,539.267,0.0
54805.0,STARLINK-5417,PAYLOAD,2023-12-08 09:15:12,15.0884747,0.0001634,53.2137,120.2965,86.2622,273.8557,-3.4934e-06,-3.44e-06,0.0,0 STARLINK-5417,1 54805U 22175AZ  23342.38556101 -.00000344  00000-0 -34934-5 0  9993,2 54805  53.2137 120.2965 0001634  86.2622 273.8557 15.08847470 53830,6917.858,95.437,540.853,538.592,0.0
54805.0,STARLINK-5417,PAYLOAD,2023-12-08 10:50:35,15.08844486,0.0001248,53.215,119.9969,103.8912,256.2219,-3.3081e-05,-8.14e-06,0.0,0 STARLINK-5417,1 54805U 22175AZ  23342.45180200 -.00000814  00000-0 -33081-4 0  9997,2 54805  53.2150 119.9969 0001248 103.8912 256.2219 15.08844486 56009,6917.867,95.437,540.595,538.868,0.0
54805.0,STARLINK-5417,PAYLOAD,2023-12-09 09:05:59,15.08841469,0.0001253,53.215,115.8335,107.0475,253.0654,-3.0611e-05,-7.75e-06,0.0,0 STARLINK-5417,1 54805U 22175AZ  23343.37916045 -.00000775  00000-0 -30611-4 0  9995,2 54805  53.2150 115.8335 0001253 107.0475 253.0654 15.08841469 53987,6917.876,95.437,540.608,538.874,0.0
54805.0,STARLINK-5417,PAYLOAD,2023-12-09 12:16:45,15.0884123,0.0001188,53.2154,115.2391,109.3041,250.808,-3.3629e-05,-8.23e-06,0.0,0 STARLINK-5417,1 54805U 22175AZ  23343.51164024 -.00000823  00000-0 -33629-4 0  9999,2 54805  53.2154 115.2391 0001188 109.3041 250.8080 15.08841230 56165,6917.877,95.437,540.563,538.92,0.0
54805.0,STARLINK-5417,PAYLOAD,2023-12-10 12:07:32,15.08836538,0.0001076,53.2159,110.7795,96.9455,263.1659,-8.5289e-06,-4.23e-06,0.0,0 STARLINK-5417,1 54805U 22175AZ  23344.50524216 -.00000423  00000-0 -85289-5 0  9998,2 54805  53.2159 110.7795 0001076  96.9455 263.1659 15.08836538 54155,6917.891,95.438,540.5,539.012,0.0
54805.0,STARLINK-5417,PAYLOAD,2023-12-10 13:42:56,15.08836771,0.0001002,53.2165,110.4829,86.4884,273.6223,-7.9682e-06,-4.15e-06,0.0,0 STARLINK-5417,1 54805U 22175AZ  23344.57148243 -.00000415  00000-0 -79682-5 0  9998,2 54805  53.2165 110.4829 0001002  86.4884 273.6223 15.08836771 56329,6917.89,95.438,540.448,539.062,0.0
54805.0,STARLINK-5417,PAYLOAD,2023-12-10 15:18:19,15.08837696,0.0001006,53.2166,110.1859,80.4126,279.698,-9.6988e-07,-3.03e-06,0.0,0 STARLINK-5417,1 54805U 22175AZ  23344.63772190 -.00000303  00000-0 -96988-6 0  9994,2 54805  53.2166 110.1859 0001006  80.4126 279.6980 15.08837696 56331,6917.887,95.438,540.448,539.056,0.0
54805.0,STARLINK-5417,PAYLOAD,2023-12-11 13:33:42,15.08839246,0.0001015,53.2171,106.0221,81.074,279.0367,1.8367e-05,5e-08,0.0,0 STARLINK-5417,1 54805U 22175AZ  23345.56508064  .00000005  00000-0  18367-4 0  9994,2 54805  53.2171 106.0221 0001015  81.0740 279.0367 15.08839246 56474,6917.883,95.438,540.45,539.046,0.0
54805.0,STARLINK-5417,PAYLOAD,2023-12-11 15:09:06,15.08840409,0.0001017,53.2171,105.7247,82.2268,277.884,2.7873e-05,1.56e-06,0.0,0 STARLINK-5417,1 54805U 22175AZ  23345.63131955  .00000156  00000-0  27873-4 0  9992,2 54805  53.2171 105.7247 0001017  82.2268 277.8840 15.08840409 54325,6917.879,95.438,540.448,539.041,0.0
54805.0,STARLINK-5417,PAYLOAD,2023-12-12 11:49:07,15.08840886,0.0001214,53.2181,101.8624,111.1324,248.9798,-0.00011293,-2.085e-05,0.0,0 STARLINK-5417,1 54805U 22175AZ  23346.49244668 -.00002085  00000-0 -11293-3 0  9996,2 54805  53.2181 101.8624 0001214 111.1324 248.9798 15.08840886 54450,6917.878,95.437,540.583,538.903,0.0
54805.0,STARLINK-5417,PAYLOAD,2023-12-12 13:24:30,15.0883289,0.0001092,53.218,101.5634,90.1365,269.9752,-3.0282e-05,-7.7e-06,0.0,0 STARLINK-5417,1 54805U 22175AZ  23346.55868847 -.00000770  00000-0 -30282-4 0  9993,2 54805  53.2180 101.5634 0001092  90.1365 269.9752 15.08832890 56622,6917.902,95.438,540.523,539.012,0.0
54805.0,STARLINK-5417,PAYLOAD,2023-12-13 14:50:40,15.08843493,0.0001101,53.2169,96.8045,76.3121,283.7994,4.8483e-05,4.84e-06,0.0,0 STARLINK-5417,1 54805U 22175AZ  23347.61852040  .00000484  00000-0  48483-4 0  9991,2 54805  53.2169  96.8045 0001101  76.3121 283.7994 15.08843493 56788,6917.87,95.437,540.496,538.973,0.0
54805.0,STARLINK-5417,PAYLOAD,2023-12-14 11:30:41,15.08836263,0.0001125,53.2167,92.9409,64.4503,295.6605,1.2008e-05,-9.7e-07,0.0,0 STARLINK-5417,1 54805U 22175AZ  23348.47964731 -.00000097  00000-0  12008-4 0  9992,2 54805  53.2167  92.9409 0001125  64.4503 295.6605 15.08836263 54758,6917.892,95.438,540.535,538.979,0.0
54805.0,STARLINK-5417,PAYLOAD,2023-12-14 13:06:04,15.08837492,0.0001161,53.2165,92.644,63.0832,297.0279,2.3405e-05,8.5e-07,0.0,0 STARLINK-5417,1 54805U 22175AZ  23348.54588640  .00000085  00000-0  23405-4 0  9990,2 54805  53.2165  92.6440 0001161  63.0832 297.0279 15.08837492 56927,6917.888,95.438,540.556,538.95,0.0
54805.0,STARLINK-5417,PAYLOAD,2023-12-14 14:41:27,15.08839371,0.0001178,53.2169,92.3458,65.7454,294.3662,3.9843e-05,3.46e-06,0.0,0 STARLINK-5417,1 54805U 22175AZ  23348.61212461  .00000346  00000-0  39843-4 0  9996,2 54805  53.2169  92.3458 0001178  65.7454 294.3662 15.08839371 56939,6917.882,95.438,540.562,538.932,0.0
54805.0,STARLINK-5417,PAYLOAD,2023-12-15 14:32:15,15.08763583,0.0001769,53.219,87.8841,63.2522,296.8651,0.00094295,0.0001472,0.0,0 STARLINK-5417,1 54805U 22175AZ  23349.60573988  .00014720  00000-0  94295-3 0  9992,2 54805  53.2190  87.8841 0001769  63.2522 296.8651 15.08763583 57086,6918.114,95.442,541.203,538.755,0.0
